GLOBALSTAR M069         
1 31573U 07020C   26204.23857083 -.00000062  00000+0  28084-3 0  9991
2 31573  52.0020 150.0854 0001471 228.3389 277.9110 12.23472604883211
GLOBALSTAR M072         
1 31574U 07020D   26204.35795720 -.00000082  00000+0  32091-4 0  9990
2 31574  51.9954   3.9489 0001636  50.1578 315.8926 11.91658768879291
GLOBALSTAR M066         
1 32265U 07048C   26204.73707698 -.00000018  00000+0  64737-3 0  9997
2 32265  51.9608 312.9902 0005452 119.1810  45.0883 12.30390701864723
GLOBALSTAR M079         
1 37188U 10054A   26204.90049256 -.00000097  00000+0  35675-4 0  9992
2 37188  52.0060 356.9093 0001110  91.6633  73.2485 12.62266445727180
GLOBALSTAR M074         
1 37189U 10054B   26204.84379411 -.00000100  00000+0  20562-4 0  9999
2 37189  52.0038 356.3417 0000824 106.4571  40.5266 12.62262047727781
GLOBALSTAR M076         
1 37190U 10054C   26204.44937352 -.00000081  00000+0  12603-3 0  9995
2 37190  52.0054 357.7490 0001074 103.3381 290.3890 12.62262713727452
GLOBALSTAR M077         
1 37191U 10054D   26204.10514396 -.00000089  00000+0 -19578-3 0  9995
2 37191  51.9963  88.1305 0002148 239.9139 289.0346 11.67547147725337
GLOBALSTAR M075         
1 37192U 10054E   26204.53798487 -.00000102  00000+0  99945-5 0  9991
2 37192  51.9957  39.5122 0000798  76.6603 300.6199 12.62267911726532
GLOBALSTAR M073         
1 37193U 10054F   26204.72529975 -.00000100  00000+0  21411-4 0  9997
2 37193  52.0078 313.0725 0000956 109.4951  37.6656 12.62266984728542
GLOBALSTAR M083         
1 37739U 11033A   26204.66408258 -.00000087  00000+0  91754-4 0  9995
2 37739  51.9848 261.4384 0000669 113.8012  56.2163 12.62258562697555
GLOBALSTAR M088         
1 37740U 11033B   26204.31993882 -.00000088  00000+0  86538-4 0  9996
2 37740  52.0195 168.9984 0000198  33.4122 130.8600 12.62269562693055
GLOBALSTAR M091         
1 37741U 11033C   26204.57554858 -.00000105  00000+0 -53535-5 0  9994
2 37741  51.9992 131.1332 0000619  38.2413 148.6110 12.62264337693870
GLOBALSTAR M085         
1 37742U 11033D   26204.68741490 -.00000104  00000+0 -16461-5 0  9993
2 37742  52.0129  82.1168 0000926  56.2621 339.1711 12.62264559694409
GLOBALSTAR M081         
1 37743U 11033E   26204.63030291 -.00000101  00000+0  14968-4 0  9994
2 37743  51.9961  84.6850 0000790  66.8786 308.8052 12.62265462694545
GLOBALSTAR M089         
1 37744U 11033F   26204.07110159 -.00000099  00000+0  29140-4 0  9999
2 37744  51.9941  40.5389 0000725  99.3141  75.2064 12.62267686695310
GLOBALSTAR M084         
1 38040U 11080A   26204.38061166 -.00000090  00000+0  74837-4 0  9992
2 38040  52.0002 267.0994 0000650 145.0252 296.3303 12.62263747673331
